OBJECT_NAME,OBJECT_ID,EPOCH,MEAN_MOTION,ECCENTRICITY,INCLINATION,RA_OF_ASC_NODE,ARG_OF_PERICENTER,MEAN_ANOMALY,EPHEMERIS_TYPE,CLASSIFICATION_TYPE,NORAD_CAT_ID,ELEMENT_SET_NO,REV_AT_EPOCH,BSTAR,MEAN_MOTION_DOT,MEAN_MOTION_DDOT
CUBEBUG-2 (LO-74),2013-066AA,2026-07-16T19:15:47.811744,14.93973680,.0055539,97.8917,146.9130,289.9004,69.6236,0,U,39440,999,68141,.20214E-3,.2156E-4,0
FUNCUBE-1 (AO-73),2013-066AE,2026-07-16T11:39:15.439968,15.09827473,.0037986,97.8291,169.5530,103.5264,257.0201,0,U,39444,999,68408,.24422E-3,.3947E-4,0
UWE-3,2013-066AG,2026-07-16T19:46:31.675008,14.97205791,.0047571,97.8716,154.1042,218.9248,140.8545,0,U,39446,999,68201,.1784E-3,.2047E-4,0
UNISAT-6,2014-033C,2026-07-16T09:05:34.323936,14.88368938,.0044093,97.7910,349.5845,333.7883,26.1102,0,U,40012,999,65050,.1178E-3,.1053E-4,0
DUCHIFAT-1,2014-033M,2026-07-16T03:00:49.893408,15.71200075,.00027704,98.0416,260.5020,239.6355,120.4633,0,U,40021,999,66028,.68520431E-3,.87055E-3,0
QB50P1,2014-033R,2026-07-16T14:32:28.363776,15.18678566,.0010431,98.0963,210.8240,120.5690,239.6573,0,U,40025,999,65749,.21031E-3,.4288E-4,0
LILACSAT-2,2015-049K,2026-07-16T20:49:20.349696,15.52397700,.0008484,97.4622,235.8518,136.4706,223.7218,0,U,40908,999,60035,.18386E-3,.11135E-3,0
FOX-1A (AO-85),2015-058D,2026-07-16T07:51:44.997696,14.91092003,.0132456,64.7725,188.4142,45.3781,315.8042,0,U,40967,999,11791,.15016E-3,.1582E-4,0
CAS-2T & KS-1Q,2016-066G,2026-07-16T16:11:39.003936,14.44772114,.0342174,98.3813,273.0735,40.2782,322.3227,0,U,41847,999,50905,.78263E-4,.498E-5,0
RADFXSAT (FOX-1B),2017-073E,2026-07-16T13:46:33.193056,15.13073089,.0148312,97.4661,64.1900,226.6684,132.2108,0,U,43017,999,46983,.19535E-3,.4454E-4,0
DIWATA-2B,2018-084H,2026-07-16T20:16:20.886816,15.00567033,.0012743,98.1211,35.3517,79.3349,280.9308,0,U,43678,999,42066,.87453E-4,.1039E-4,0
ES'HAIL 2,2018-090A,2026-07-16T19:37:38.580960,1.00271843,.0002282,0.0155,59.1855,99.7063,95.9377,0,U,43700,999,2797,0,.134E-5,0
FOX-1CLIFF (AO-95),2018-099N,2026-07-16T15:09:10.327392,15.27291830,.0007367,97.4366,257.7786,233.9114,126.1444,0,U,43770,999,41771,.23706E-3,.6267E-4,0
ITASAT,2018-099AE,2026-07-16T15:51:29.966400,15.19392163,.0010937,97.4009,248.5882,244.6170,115.3932,0,U,43786,999,41738,.15294E-3,.3173E-4,0
JY1SAT (JO-97),2018-099AX,2026-07-16T15:26:12.023808,15.34548911,.000698,97.4110,260.5958,153.8178,206.3419,0,U,43803,999,41814,.3071E-3,.10209E-3,0
UWE-4,2018-111E,2026-07-16T18:35:24.211392,15.47882979,.0006445,97.5845,127.5685,188.3610,171.7533,0,U,43880,999,41535,.41089E-3,.21334E-3,0
TIANYAN 01,2019-093C,2026-07-16T20:43:48.088992,14.86559348,.0013483,97.7523,269.3706,356.0422,4.0685,0,U,44881,999,35582,-.22838E-4,-.256E-5,0
RS-44 & BREEZE-KM R/B,2019-096E,2026-07-16T09:37:33.603168,12.79748917,.0218525,82.5242,320.2932,76.1855,286.3458,0,U,44909,999,30608,.25258E-5,.14E-6,0
SALSAT,2020-068K,2026-07-16T13:49:24.532032,15.30183636,.0009353,97.8858,202.4396,187.8123,172.2972,0,U,46495,999,31985,.14101E-3,.4037E-4,0
XW-3 (CAS-9),2021-131B,2026-07-16T20:02:37.659840,14.41382840,.0004493,98.4992,290.0649,26.3415,333.8001,0,U,50466,999,23938,.11497E-3,.328E-5,0
GREENCUBE (IO-117),2022-080E,2026-07-16T06:55:09.765408,6.42583343,.000908,70.1408,288.1261,283.0875,76.8771,0,U,53109,999,9393,0,-.3E-7,0
UMKA 1 (RS40S),2023-091G,2026-07-16T19:55:50.930112,15.21131519,.0012885,97.5033,256.4172,24.0850,336.0986,0,U,57172,999,16851,.14039E-3,.306E-4,0
CUBESX-HSE 3 (RS42S),2023-091N,2026-07-16T20:03:02.130912,15.31908219,.0009499,97.5074,263.8097,356.0319,4.0845,0,U,57178,999,16896,.23002E-3,.7015E-4,0
MONITOR-3 (RS58S),2023-091Q,2026-07-16T20:40:15.163104,15.28391451,.0010812,97.5066,261.5342,3.9001,356.2321,0,U,57180,999,16882,.20822E-3,.5688E-4,0
MONITOR-4 (RS57S),2023-091S,2026-07-16T20:07:42.699360,15.28478325,.0010803,97.5059,261.4842,4.1698,355.9629,0,U,57182,999,16882,.2087E-3,.5716E-4,0
MONITOR-2 (RS39S),2023-091U,2026-07-16T19:46:04.529856,15.19162740,.0011219,97.5054,255.9171,18.6023,341.5619,0,U,57184,999,16845,.12069E-3,.2471E-4,0
SVYATOBOR 1 (RS60S),2023-091X,2026-07-16T19:30:09.296640,15.27078729,.0008596,97.5073,261.8007,358.8195,1.3022,0,U,57187,999,16883,.18035E-3,.4719E-4,0
VIZARD-METEO (RS38S),2023-091Z,2026-07-16T20:16:31.551168,15.36906017,.0005526,97.5075,267.9415,332.6448,27.4505,0,U,57189,999,16924,.26257E-3,.9396E-4,0
POLYTECH-UNIVERSE 3 (RS46S),2023-091AB,2026-07-16T20:19:25.108032,15.19375542,.0015944,97.5030,255.4444,32.3324,327.8884,0,U,57191,999,16845,.12889E-3,.2665E-4,0
UTMN 2 (RS27S),2023-091AP,2026-07-16T20:05:22.339104,15.32724928,.0006571,97.5070,265.4811,343.8701,16.2330,0,U,57203,999,16908,.21592E-3,.6746E-4,0
