CUBEBUG-2 (LO-74)
1 39440U 13066AA  26197.80263671  .00002156  00000-0  20214-3 0  9990
2 39440  97.8917 146.9130 0055539 289.9004  69.6236 14.93973680681418
FUNCUBE-1 (AO-73)
1 39444U 13066AE  26197.48559537  .00003947  00000-0  24422-3 0  9991
2 39444  97.8291 169.5530 0037986 103.5264 257.0201 15.09827473684084
UWE-3
1 39446U 13066AG  26197.82397772  .00002047  00000-0  17840-3 0  9998
2 39446  97.8716 154.1042 0047571 218.9248 140.8545 14.97205791682010
UNISAT-6
1 40012U 14033C   26197.37886949  .00001053  00000-0  11780-3 0  9996
2 40012  97.7910 349.5845 0044093 333.7883  26.1102 14.88368938650501
DUCHIFAT-1
1 40021U 14033M   26197.12557747  .00087055  00000-0  68520-3 0  9990
2 40021  98.0416 260.5020 0002770 239.6355 120.4633 15.71200075660280
LILACSAT-2
1 40908U 15049K   26197.86759664  .00011135  00000-0  18386-3 0  9996
2 40908  97.4622 235.8518 0008484 136.4706 223.7218 15.52397700600354
CAS-2T & KS-1Q
1 41847U 16066G   26197.67475699  .00000498  00000-0  78263-4 0  9992
2 41847  98.3813 273.0735 0342174  40.2782 322.3227 14.44772114509054
FOX-1B (AO-91)
1 43017U 17073E   26197.57399529  .00004454  00000-0  19535-3 0  9990
2 43017  97.4661  64.1900 0148312 226.6684 132.2108 15.13073089469837
FUNCUBE-3 (EO-79)/QB50P1
1 40025U 14033R   26197.60588384  .00004288  00000-0  21031-3 0  9991
2 40025  98.0963 210.8240 0010431 120.5690 239.6573 15.18678566657496
FOX-1A (AO-85)
1 40967U 15058D   26197.32760414  .00001582  00000-0  15016-3 0  9999
2 40967  64.7725 188.4142 0132456  45.3781 315.8042 14.91092003117917
DIWATA-2B (PO-101)
1 43678U 18084H   26197.84468619  .00001039  00000-0  87453-4 0  9994
2 43678  98.1211  35.3517 0012743  79.3349 280.9308 15.00567033420666
ESHAIL-2
1 43700U 18090A   26197.81780765  .00000134  00000-0  00000+0 0  9996
2 43700   0.0155  59.1855 0002282  99.7063  95.9377  1.00271843 27979
ITASAT-1
1 43786U 18099AE  26197.66076350  .00003173  00000-0  15294-3 0  9991
2 43786  97.4009 248.5882 0010937 244.6170 115.3932 15.19392163417387
FOX-1CLIFF (AO-95)
1 43770U 18099N   26197.63136953  .00006267  00000-0  23706-3 0  9991
2 43770  97.4366 257.7786 0007367 233.9114 126.1444 15.27291830417716
JY1SAT (JO-97)
1 43803U 18099AX  26197.64319472  .00010209  00000-0  30710-3 0  9992
2 43803  97.4110 260.5958 0006980 153.8178 206.3419 15.34548911418147
UWE-4
1 43880U 18111E   26197.77458578  .00021334  00000-0  41089-3 0  9999
2 43880  97.5845 127.5685 0006445 188.3610 171.7533 15.47882979415358
CAS-6 (TO-108)
1 44881U 19093C   26197.86375103 -.00000256  00000-0 -22838-4 0  9997
2 44881  97.7523 269.3706 0013483 356.0422   4.0685 14.86559348355823
DOSAAF-85 (RS-44)
1 44909U 19096E   26197.40108337  .00000014  00000-0  25258-5 0  9994
2 44909  82.5242 320.2932 0218525  76.1855 286.3458 12.79748917306085
SALSAT (TUBSAT 22)
1 46495U 20068K   26197.57597838  .00004037  00000-0  14101-3 0  9995
2 46495  97.8858 202.4396 0009353 187.8123 172.2972 15.30183636319853
CAMSAT XW-3 (CAS-9)
1 50466U 21131B   26197.83515810  .00000328  00000-0  11497-3 0  9993
2 50466  98.4992 290.0649 0004493  26.3415 333.8001 14.41382840239383
ROBUSTA 1F (MTCUBE-2)
1 53109U 22080E   26197.28830747 -.00000003  00000-0  00000+0 0  9997
2 53109  70.1408 288.1261 0009080 283.0875  76.8771  6.42583343 93936
UMKA-1 (RS40S)
1 57172U 23091G   26197.83045058  .00003060  00000-0  14039-3 0  9994
2 57172  97.5033 256.4172 0012885  24.0850 336.0986 15.21131519168516
CUBESX-HSE-3 (RS42S)
1 57178U 23091N   26197.83544133  .00007015  00000-0  23002-3 0  9992
2 57178  97.5074 263.8097 0009499 356.0319   4.0845 15.31908219168965
MONITOR-3 (RS58S)
1 57180U 23091Q   26197.86128661  .00005688  00000-0  20822-3 0  9993
2 57180  97.5066 261.5342 0010812   3.9001 356.2321 15.28391451168820
MONITOR-4 (RS57S)
1 57182U 23091S   26197.83868865  .00005716  00000-0  20870-3 0  9994
2 57182  97.5059 261.4842 0010803   4.1698 355.9629 15.28478325168826
MONITOR-2 (RS39S)
1 57184U 23091U   26197.82366354  .00002471  00000-0  12069-3 0  9997
2 57184  97.5054 255.9171 0011219  18.6023 341.5619 15.19162740168450
SVYATOBOR-1 (RS60S)
1 57187U 23091X   26197.81260760  .00004719  00000-0  18035-3 0  9999
2 57187  97.5073 261.8007 0008596 358.8195   1.3022 15.27078729168834
VIZARD-METEO (RS38S)
1 57189U 23091Z   26197.84480962  .00009396  00000-0  26257-3 0  9993
2 57189  97.5075 267.9415 0005526 332.6448  27.4505 15.36906017169240
UTMN-2 (RS27S)
1 57203U 23091AP  26197.83706411  .00006746  00000-0  21592-3 0  9992
2 57203  97.5070 265.4811 0006571 343.8701  16.2330 15.32724928169081
POLYTECH UNIVERSE-3 (RS46S)
1 57191U 23091AB  26197.84681838  .00002665  00000-0  12889-3 0  9999
2 57191  97.5030 255.4444 0015944  32.3324 327.8884 15.19375542168453
